CUTE-1 (CO-55)          
1 27844U 03031E   26166.49171905  .00000237  00000+0  12167-3 0  9990
2 27844  98.6736 175.0719 0009421 182.9125 177.2000 14.24334794191436
CUBESAT XI-IV (CO-57)   
1 27848U 03031J   26166.47932631  .00000199  00000+0  10658-3 0  9993
2 27848  98.6767 174.7736 0008908 202.2653 157.8140 14.23619986191134
CUBESAT XI-V            
1 28895U 05043F   26166.36421163  .00001202  00000+0  19691-3 0  9994
2 28895  98.2983 321.9478 0013522 206.7180 153.3331 14.72627055101486
CUTE-1.7+APD II (CO-65) 
1 32785U 08021C   26166.52520966  .00003881  00000+0  24653-3 0  9994
2 32785  97.8271 147.9091 0009980  44.3602 315.8425 15.09438822984941
CANX-2                  
1 32790U 08021H   26166.49383330  .00004129  00000+0  29041-3 0  9990
2 32790  97.8630 146.2384 0011457  55.3554 304.8750 15.05605539984556
SEEDS II (CO-66)        
1 32791U 08021J   26166.50344194  .00015182  00000+0  48293-3 0  9999
2 32791  97.7511 164.3206 0001314  10.2438 349.8829 15.32702208987033
SWISSCUBE               
1 35932U 09051B   26166.25297169  .00000842  00000+0  17592-3 0  9999
2 35932  98.4038  74.1075 0005844 209.7614 150.3255 14.62478329888876
BEESAT-1                
1 35933U 09051C   26166.46675994  .00000703  00000+0  15091-3 0  9997
2 35933  98.3966  73.9642 0004133 223.5476 136.5399 14.61718018888936
ITUPSAT1                
1 35935U 09051E   26166.45614387  .00000634  00000+0  14088-3 0  9995
2 35935  98.4051  73.1472 0006198 240.3357 119.7226 14.60438270888485
TISAT 1                 
1 36799U 10035E   26166.41853977  .00015795  00000+0  51916-3 0  9999
2 36799  98.0712 112.8106 0001142 170.4418 189.6843 15.31649244867431
AEROCUBE 4.5A           
1 38767U 12048K   26165.96807538  .00413946  74855-4  10713-2 0  9996
2 38767  64.6249  35.0020 0019534 222.2372 137.7286 15.94483897372303
STRAND-1                
1 39090U 13009E   26166.45470669  .00000220  00000+0  88443-4 0  9990
2 39090  98.3921 346.7318 0007648 231.1589 128.8916 14.37162360696819
BRITE-AUSTRIA           
1 39091U 13009F   26166.46683411  .00000139  00000+0  61898-4 0  9997
2 39091  98.3993 345.9451 0009085 242.3065 117.7200 14.36541469696800
NEE-01 PEGASO           
1 39151U 13018B   26166.38986017  .00002027  00000+0  19741-3 0  9990
2 39151  98.1214 310.4803 0012937 165.1710 194.9891 14.93651825710438
POPACS 2                
1 39269U 13055E   26166.36468816  .00010853  00000+0  18376-3 0  9990
2 39269  80.9902 146.2784 0416885 199.6373 158.8380 14.91171919662944
POPACS 3                
1 39270U 13055F   26166.47030024  .00008012  00000+0  18804-3 0  9990
2 39270  81.0017 231.0485 0552307  75.2193 290.9504 14.56095763638307
ZACUBE-1 (TSHEPISOSAT)  
1 39417U 13066B   26166.40761859  .00002611  00000+0  20511-3 0  9992
2 39417  97.8082 128.7350 0040605 253.8926 105.7825 15.01179836680469
WNISAT-1                
1 39423U 13066H   26166.42681730  .00000705  00000+0  13731-3 0  9998
2 39423  97.7199 315.7080 0161894 237.1756 121.3768 14.58059446666472
TRITON-1                
1 39427U 13066M   26166.47227148  .00001409  00000+0  17419-3 0  9995
2 39427  97.8257  76.3186 0088415 239.5976 119.6477 14.81700832673839
GOMX-1                  
1 39430U 13066Q   26166.55172280  .00001990  00000+0  30239-3 0  9994
2 39430  97.6479   7.1177 0130155  82.7407 278.8574 14.69456472669672
CUBEBUG-2 (LO-74)       
1 39440U 13066AA  26166.38852800  .00003783  00000+0  35100-3 0  9993
2 39440  97.8905 115.3590 0058509  34.8517 325.6511 14.93747885676726
NEE-02 KRYSAOR          
1 39441U 13066AB  26166.52650132  .00002097  00000+0  23305-3 0  9995
2 39441  97.8894 105.7531 0067692  75.5305 285.3408 14.86612129675957
FUNCUBE-1 (AO-73)       
1 39444U 13066AE  26166.46559247  .00005832  00000+0  36309-3 0  9994
2 39444  97.8272 137.8755 0035505 207.0229 152.9152 15.09471681679400
UWE-3                   
1 39446U 13066AG  26166.41095872  .00003615  00000+0  31229-3 0  9993
2 39446  97.8693 122.4726 0047855 327.0614  32.7628 14.97011844677317
BRITE-CA1 (TORONTO)     
1 40020U 14033L   26166.33917075  .00000597  00000+0  97618-4 0  9998
2 40020  97.9736 295.3012 0077245 283.0419  76.2174 14.72674284641949
DUCHIFAT-1              
1 40021U 14033M   26166.42257014  .00087303  00000+0  90897-3 0  9990
2 40021  98.0462 225.3358 0003280 119.3803 240.7782 15.64281009655477
NANOSATC-BR1            
1 40024U 14033Q   26165.59181314  .00015703  00000+0  52030-3 0  9991
2 40024  98.0719 197.7493 0004179 169.8700 190.2624 15.31384789653588
QB50P1                  
1 40025U 14033R   26166.50240755  .00007203  00000+0  35526-3 0  9996
2 40025  98.0960 177.5301 0007678 221.8963 138.1683 15.18239692652771
QB50P2                  
1 40032U 14033Y   26166.51510336  .00005581  00000+0  30147-3 0  9991
2 40032  98.0745 163.2911 0007883 168.2312 191.9104 15.15140467652413
PERSEUS-M2              
1 40037U 14033AD  26166.52424711  .00001270  00000+0  12009-3 0  9996
2 40037  97.9956 117.0311 0010938 310.1553  49.8708 14.95504067650530
